ONEWEB-0320             
1 49190U 21083E   25341.78927896  .00000193  00000+0  45713-3 0  9993
2 49190  87.9176  13.4842 0001784  94.5954 265.5382 13.18686192204755
ONEWEB-0321             
1 49191U 21083F   25341.91504038  .00000014  00000+0  25873-5 0  9997
2 49191  87.9197 312.5794 0001945  74.7070 285.4278 13.20770723211587
ONEWEB-0322             
1 49192U 21083G   25341.79729026  .00000235  00000+0  60969-3 0  9998
2 49192  87.8971 358.2946 0002152  84.0070 276.1304 13.13470704205799
ONEWEB-0324             
1 49193U 21083H   25341.85112094  .00000052  00000+0  98455-4 0  9996
2 49193  87.9182  13.4494 0001615  92.1933 267.9384 13.18684378204787
ONEWEB-0325             
1 49194U 21083J   25341.85442733  .00000068  00000+0  14059-3 0  9997
2 49194  87.9182  13.4678 0001841  94.2268 265.9075 13.18685766204795
ONEWEB-0326             
1 49195U 21083K   25341.79353091  .00000130  00000+0  29802-3 0  9991
2 49195  87.9177  13.4671 0001843 105.0656 255.0680 13.18685800204776
ONEWEB-0327             
1 49196U 21083L   25341.79325008  .00000089  00000+0  19346-3 0  9994
2 49196  87.9171  13.4870 0001947 105.7322 254.4025 13.18685704204795
ONEWEB-0328             
1 49197U 21083M   25341.55859330 -.00000006  00000+0 -50473-4 0  9997
2 49197  87.8985 358.2893 0001615  90.9755 269.1559 13.13471428205742
