<?xml version="1.0" encoding="UTF-8"?>
<ndm xmlns:xsi="http://www.w3.org/2001/XMLSchema-instance" xsi:noNamespaceSchemaLocation="https://sanaregistry.org/r/ndmxml_unqualified/ndmxml-2.0.0-master-2.0.xsd">
<omm id="CCSDS_OMM_VERS" version="2.0">
<header><CREATION_DATE/><ORIGINATOR/></header><body><segment><metadata><OBJECT_NAME>ONEWEB-0320</OBJECT_NAME><OBJECT_ID>2021-083E</OBJECT_ID><CENTER_NAME>EARTH</CENTER_NAME><REF_FRAME>TEME</REF_FRAME><TIME_SYSTEM>UTC</TIME_SYSTEM><MEAN_ELEMENT_THEORY>SGP4</MEAN_ELEMENT_THEORY></metadata><data><meanElements><EPOCH>2025-12-07T18:56:33.702144</EPOCH><MEAN_MOTION>13.18686192</MEAN_MOTION><ECCENTRICITY>.00017847</ECCENTRICITY><INCLINATION>87.9176</INCLINATION><RA_OF_ASC_NODE>13.4842</RA_OF_ASC_NODE><ARG_OF_PERICENTER>94.5954</ARG_OF_PERICENTER><MEAN_ANOMALY>265.5382</MEAN_ANOMALY></meanElements><tleParameters><EPHEMERIS_TYPE>0</EPHEMERIS_TYPE><CLASSIFICATION_TYPE>U</CLASSIFICATION_TYPE><NORAD_CAT_ID>49190</NORAD_CAT_ID><ELEMENT_SET_NO>999</ELEMENT_SET_NO><REV_AT_EPOCH>20475</REV_AT_EPOCH><BSTAR>.45712597E-3</BSTAR><MEAN_MOTION_DOT>.193E-5</MEAN_MOTION_DOT><MEAN_MOTION_DDOT>0</MEAN_MOTION_DDOT></tleParameters></data></segment></body></omm>
<omm id="CCSDS_OMM_VERS" version="2.0">
<header><CREATION_DATE/><ORIGINATOR/></header><body><segment><metadata><OBJECT_NAME>ONEWEB-0321</OBJECT_NAME><OBJECT_ID>2021-083F</OBJECT_ID><CENTER_NAME>EARTH</CENTER_NAME><REF_FRAME>TEME</REF_FRAME><TIME_SYSTEM>UTC</TIME_SYSTEM><MEAN_ELEMENT_THEORY>SGP4</MEAN_ELEMENT_THEORY></metadata><data><meanElements><EPOCH>2025-12-07T21:57:39.488832</EPOCH><MEAN_MOTION>13.20770723</MEAN_MOTION><ECCENTRICITY>.0001945</ECCENTRICITY><INCLINATION>87.9197</INCLINATION><RA_OF_ASC_NODE>312.5794</RA_OF_ASC_NODE><ARG_OF_PERICENTER>74.7070</ARG_OF_PERICENTER><MEAN_ANOMALY>285.4278</MEAN_ANOMALY></meanElements><tleParameters><EPHEMERIS_TYPE>0</EPHEMERIS_TYPE><CLASSIFICATION_TYPE>U</CLASSIFICATION_TYPE><NORAD_CAT_ID>49191</NORAD_CAT_ID><ELEMENT_SET_NO>999</ELEMENT_SET_NO><REV_AT_EPOCH>21158</REV_AT_EPOCH><BSTAR>.258731E-5</BSTAR><MEAN_MOTION_DOT>.14E-6</MEAN_MOTION_DOT><MEAN_MOTION_DDOT>0</MEAN_MOTION_DDOT></tleParameters></data></segment></body></omm>
<omm id="CCSDS_OMM_VERS" version="2.0">
<header><CREATION_DATE/><ORIGINATOR/></header><body><segment><metadata><OBJECT_NAME>ONEWEB-0322</OBJECT_NAME><OBJECT_ID>2021-083G</OBJECT_ID><CENTER_NAME>EARTH</CENTER_NAME><REF_FRAME>TEME</REF_FRAME><TIME_SYSTEM>UTC</TIME_SYSTEM><MEAN_ELEMENT_THEORY>SGP4</MEAN_ELEMENT_THEORY></metadata><data><meanElements><EPOCH>2025-12-07T19:08:05.878464</EPOCH><MEAN_MOTION>13.13470704</MEAN_MOTION><ECCENTRICITY>.00021521</ECCENTRICITY><INCLINATION>87.8971</INCLINATION><RA_OF_ASC_NODE>358.2946</RA_OF_ASC_NODE><ARG_OF_PERICENTER>84.0070</ARG_OF_PERICENTER><MEAN_ANOMALY>276.1304</MEAN_ANOMALY></meanElements><tleParameters><EPHEMERIS_TYPE>0</EPHEMERIS_TYPE><CLASSIFICATION_TYPE>U</CLASSIFICATION_TYPE><NORAD_CAT_ID>49192</NORAD_CAT_ID><ELEMENT_SET_NO>999</ELEMENT_SET_NO><REV_AT_EPOCH>20579</REV_AT_EPOCH><BSTAR>.60968501E-3</BSTAR><MEAN_MOTION_DOT>.235E-5</MEAN_MOTION_DOT><MEAN_MOTION_DDOT>0</MEAN_MOTION_DDOT></tleParameters></data></segment></body></omm>
<omm id="CCSDS_OMM_VERS" version="2.0">
<header><CREATION_DATE/><ORIGINATOR/></header><body><segment><metadata><OBJECT_NAME>ONEWEB-0324</OBJECT_NAME><OBJECT_ID>2021-083H</OBJECT_ID><CENTER_NAME>EARTH</CENTER_NAME><REF_FRAME>TEME</REF_FRAME><TIME_SYSTEM>UTC</TIME_SYSTEM><MEAN_ELEMENT_THEORY>SGP4</MEAN_ELEMENT_THEORY></metadata><data><meanElements><EPOCH>2025-12-07T20:25:36.849216</EPOCH><MEAN_MOTION>13.18684378</MEAN_MOTION><ECCENTRICITY>.00016156</ECCENTRICITY><INCLINATION>87.9182</INCLINATION><RA_OF_ASC_NODE>13.4494</RA_OF_ASC_NODE><ARG_OF_PERICENTER>92.1933</ARG_OF_PERICENTER><MEAN_ANOMALY>267.9384</MEAN_ANOMALY></meanElements><tleParameters><EPHEMERIS_TYPE>0</EPHEMERIS_TYPE><CLASSIFICATION_TYPE>U</CLASSIFICATION_TYPE><NORAD_CAT_ID>49193</NORAD_CAT_ID><ELEMENT_SET_NO>999</ELEMENT_SET_NO><REV_AT_EPOCH>20478</REV_AT_EPOCH><BSTAR>.9845503E-4</BSTAR><MEAN_MOTION_DOT>.52E-6</MEAN_MOTION_DOT><MEAN_MOTION_DDOT>0</MEAN_MOTION_DDOT></tleParameters></data></segment></body></omm>
<omm id="CCSDS_OMM_VERS" version="2.0">
<header><CREATION_DATE/><ORIGINATOR/></header><body><segment><metadata><OBJECT_NAME>ONEWEB-0325</OBJECT_NAME><OBJECT_ID>2021-083J</OBJECT_ID><CENTER_NAME>EARTH</CENTER_NAME><REF_FRAME>TEME</REF_FRAME><TIME_SYSTEM>UTC</TIME_SYSTEM><MEAN_ELEMENT_THEORY>SGP4</MEAN_ELEMENT_THEORY></metadata><data><meanElements><EPOCH>2025-12-07T20:30:22.521312</EPOCH><MEAN_MOTION>13.18685766</MEAN_MOTION><ECCENTRICITY>.00018418</ECCENTRICITY><INCLINATION>87.9182</INCLINATION><RA_OF_ASC_NODE>13.4678</RA_OF_ASC_NODE><ARG_OF_PERICENTER>94.2268</ARG_OF_PERICENTER><MEAN_ANOMALY>265.9075</MEAN_ANOMALY></meanElements><tleParameters><EPHEMERIS_TYPE>0</EPHEMERIS_TYPE><CLASSIFICATION_TYPE>U</CLASSIFICATION_TYPE><NORAD_CAT_ID>49194</NORAD_CAT_ID><ELEMENT_SET_NO>999</ELEMENT_SET_NO><REV_AT_EPOCH>20479</REV_AT_EPOCH><BSTAR>.1405918E-3</BSTAR><MEAN_MOTION_DOT>.68E-6</MEAN_MOTION_DOT><MEAN_MOTION_DDOT>0</MEAN_MOTION_DDOT></tleParameters></data></segment></body></omm>
<omm id="CCSDS_OMM_VERS" version="2.0">
<header><CREATION_DATE/><ORIGINATOR/></header><body><segment><metadata><OBJECT_NAME>ONEWEB-0326</OBJECT_NAME><OBJECT_ID>2021-083K</OBJECT_ID><CENTER_NAME>EARTH</CENTER_NAME><REF_FRAME>TEME</REF_FRAME><TIME_SYSTEM>UTC</TIME_SYSTEM><MEAN_ELEMENT_THEORY>SGP4</MEAN_ELEMENT_THEORY></metadata><data><meanElements><EPOCH>2025-12-07T19:02:41.070624</EPOCH><MEAN_MOTION>13.18685800</MEAN_MOTION><ECCENTRICITY>.00018437</ECCENTRICITY><INCLINATION>87.9177</INCLINATION><RA_OF_ASC_NODE>13.4671</RA_OF_ASC_NODE><ARG_OF_PERICENTER>105.0656</ARG_OF_PERICENTER><MEAN_ANOMALY>255.0680</MEAN_ANOMALY></meanElements><tleParameters><EPHEMERIS_TYPE>0</EPHEMERIS_TYPE><CLASSIFICATION_TYPE>U</CLASSIFICATION_TYPE><NORAD_CAT_ID>49195</NORAD_CAT_ID><ELEMENT_SET_NO>999</ELEMENT_SET_NO><REV_AT_EPOCH>20477</REV_AT_EPOCH><BSTAR>.29802065E-3</BSTAR><MEAN_MOTION_DOT>.13E-5</MEAN_MOTION_DOT><MEAN_MOTION_DDOT>0</MEAN_MOTION_DDOT></tleParameters></data></segment></body></omm>
<omm id="CCSDS_OMM_VERS" version="2.0">
<header><CREATION_DATE/><ORIGINATOR/></header><body><segment><metadata><OBJECT_NAME>ONEWEB-0327</OBJECT_NAME><OBJECT_ID>2021-083L</OBJECT_ID><CENTER_NAME>EARTH</CENTER_NAME><REF_FRAME>TEME</REF_FRAME><TIME_SYSTEM>UTC</TIME_SYSTEM><MEAN_ELEMENT_THEORY>SGP4</MEAN_ELEMENT_THEORY></metadata><data><meanElements><EPOCH>2025-12-07T19:02:16.806912</EPOCH><MEAN_MOTION>13.18685704</MEAN_MOTION><ECCENTRICITY>.00019476</ECCENTRICITY><INCLINATION>87.9171</INCLINATION><RA_OF_ASC_NODE>13.4870</RA_OF_ASC_NODE><ARG_OF_PERICENTER>105.7322</ARG_OF_PERICENTER><MEAN_ANOMALY>254.4025</MEAN_ANOMALY></meanElements><tleParameters><EPHEMERIS_TYPE>0</EPHEMERIS_TYPE><CLASSIFICATION_TYPE>U</CLASSIFICATION_TYPE><NORAD_CAT_ID>49196</NORAD_CAT_ID><ELEMENT_SET_NO>999</ELEMENT_SET_NO><REV_AT_EPOCH>20479</REV_AT_EPOCH><BSTAR>.19346011E-3</BSTAR><MEAN_MOTION_DOT>.89E-6</MEAN_MOTION_DOT><MEAN_MOTION_DDOT>0</MEAN_MOTION_DDOT></tleParameters></data></segment></body></omm>
<omm id="CCSDS_OMM_VERS" version="2.0">
<header><CREATION_DATE/><ORIGINATOR/></header><body><segment><metadata><OBJECT_NAME>ONEWEB-0328</OBJECT_NAME><OBJECT_ID>2021-083M</OBJECT_ID><CENTER_NAME>EARTH</CENTER_NAME><REF_FRAME>TEME</REF_FRAME><TIME_SYSTEM>UTC</TIME_SYSTEM><MEAN_ELEMENT_THEORY>SGP4</MEAN_ELEMENT_THEORY></metadata><data><meanElements><EPOCH>2025-12-07T13:24:22.461120</EPOCH><MEAN_MOTION>13.13471428</MEAN_MOTION><ECCENTRICITY>.00016155</ECCENTRICITY><INCLINATION>87.8985</INCLINATION><RA_OF_ASC_NODE>358.2893</RA_OF_ASC_NODE><ARG_OF_PERICENTER>90.9755</ARG_OF_PERICENTER><MEAN_ANOMALY>269.1559</MEAN_ANOMALY></meanElements><tleParameters><EPHEMERIS_TYPE>0</EPHEMERIS_TYPE><CLASSIFICATION_TYPE>U</CLASSIFICATION_TYPE><NORAD_CAT_ID>49197</NORAD_CAT_ID><ELEMENT_SET_NO>999</ELEMENT_SET_NO><REV_AT_EPOCH>20574</REV_AT_EPOCH><BSTAR>-.50473404E-4</BSTAR><MEAN_MOTION_DOT>-.6E-7</MEAN_MOTION_DOT><MEAN_MOTION_DDOT>0</MEAN_MOTION_DDOT></tleParameters></data></segment></body></omm>

</ndm>
